[{"OBJECT_NAME":"STARLINK-2586","OBJECT_ID":"2021-038AP","EPOCH":"2026-03-09T22:12:28.675296","MEAN_MOTION":15.30196494,"ECCENTRICITY":0.00016431,"INCLINATION":53.1631,"RA_OF_ASC_NODE":331.5574,"ARG_OF_PERICENTER":127.3896,"MEAN_ANOMALY":232.7255,"EPHEMERIS_TYPE":0,"CLASSIFICATION_TYPE":"U","NORAD_CAT_ID":48390,"ELEMENT_SET_NO":999,"REV_AT_EPOCH":26869,"BSTAR":-0.0001601936,"MEAN_MOTION_DOT":-5.1e-5,"MEAN_MOTION_DDOT":0},{"OBJECT_NAME":"ION SCV-004","OBJECT_ID":"2022-002K","EPOCH":"2026-03-09T16:32:03.244416","MEAN_MOTION":15.29369331,"ECCENTRICITY":0.00072157,"INCLINATION":97.2961,"RA_OF_ASC_NODE":128.2294,"ARG_OF_PERICENTER":1.6783,"MEAN_ANOMALY":358.448,"EPHEMERIS_TYPE":0,"CLASSIFICATION_TYPE":"U","NORAD_CAT_ID":50993,"ELEMENT_SET_NO":999,"REV_AT_EPOCH":23008,"BSTAR":0.00023198467,"MEAN_MOTION_DOT":6.538e-5,"MEAN_MOTION_DDOT":0}]
